ONEWEB-0570             
1 55149U 23004K   23324.58334491 -.00008592  00000+0 -17930-1 0  9990
2 55149  87.9732 162.4356 0000596  52.2700  94.3232 13.31900734  5374
ONEWEB-0571             
1 55150U 23004L   23324.58334491 -.00008557  00000+0 -17886-1 0  9993
2 55150  87.9704 162.4397 0001144  99.4786  58.9970 13.31799150  5358
ONEWEB-0572             
1 55151U 23004M   23324.58072994 -.00002807  00000+0 -72631-2 0  9993
2 55151  87.9236 192.6403 0002103  79.9151 280.2217 13.17661326 43743
ONEWEB-0573             
1 55152U 23004N   23324.58334491 -.00010439  00000+0 -21833-1 0  9994
2 55152  87.9716 162.4846 0000746  94.4037 337.5450 13.31753329  5002
ONEWEB-0588             
1 55153U 23004P   23324.58334491  .00074396  00000+0  15352+0 0  9992
2 55153  87.9675 162.4261 0001189 102.0262 288.1824 13.31912505  5397
ONEWEB-0598             
1 55154U 23004Q   23324.41195421 -.00000388  00000+0 -11292-2 0  9997
2 55154  87.8988 207.8271 0001280 107.0503 253.0765 13.11415603 42733
ONEWEB-0599             
1 55155U 23004R   23324.61871907  .00000081  00000+0  17561-3 0  9994
2 55155  87.9235 192.6072 0001585  77.3766 282.7542 13.17652490 43756
ONEWEB-0614             
1 55156U 23004S   23324.40709043 -.00000502  00000+0 -14516-2 0  9999
2 55156  87.9020 207.8208 0002050  71.5570 288.5781 13.11413924 42687
